STARLINK-32754          
1 62527U 25004S   26068.46297704  .00030763  00000+0  11224-2 0  9994
2 62527  42.9981 221.1752 0001779 292.6160  67.4503 15.27589937 65470
FLOCK 4G-21             
1 62651U 25009AU  26068.19487675  .00013648  00000+0  49619-3 0  9998
2 62651  97.4032 151.1274 0000465 329.5782  30.5431 15.28381075 63677
